{
  "norad_id": 56391,
  "name": "STARLINK-6298",
  "history": [
    {
      "epoch": "2026-03-28T17:08:00.273984Z",
      "apogee_km": 486.2126474104725,
      "perigee_km": 484.90854486720764,
      "latitude_deg": -5.1387146843055254e-05,
      "longitude_deg": 6.932723625414736,
      "height_km": 485.38466421616454,
      "semi_major_axis_km": 6863.69759613884,
      "eccentricity": 9.5e-05,
      "inclination_deg": 43.0018,
      "raan_deg": 90.0643,
      "arg_perigee_deg": 265.8249,
      "mean_anomaly_deg": 94.2493,
      "mean_motion_rev_day": 15.2674164
    },
    {
      "epoch": "2026-03-29T00:59:02.514048Z",
      "apogee_km": 486.25276520035095,
      "perigee_km": 484.8539451059705,
      "latitude_deg": 2.9630206684510502e-05,
      "longitude_deg": -112.99403726819914,
      "height_km": 485.34652945860324,
      "semi_major_axis_km": 6863.69035515316,
      "eccentricity": 0.0001019,
      "inclination_deg": 43.001,
      "raan_deg": 88.2192,
      "arg_perigee_deg": 268.6392,
      "mean_anomaly_deg": 91.4343,
      "mean_motion_rev_day": 15.26744056
    },
    {
      "epoch": "2026-03-30T00:32:09.833856Z",
      "apogee_km": 486.1083702675769,
      "perigee_km": 485.01978727648475,
      "latitude_deg": 1.013499632114842e-05,
      "longitude_deg": -112.77650438176653,
      "height_km": 485.28628900505936,
      "semi_major_axis_km": 6863.701078772031,
      "eccentricity": 7.93e-05,
      "inclination_deg": 43.0001,
      "raan_deg": 82.6845,
      "arg_perigee_deg": 275.7002,
      "mean_anomaly_deg": 84.3759,
      "mean_motion_rev_day": 15.26740478
    },
    {
      "epoch": "2026-03-30T06:48:59.919840Z",
      "apogee_km": 486.0071409054899,
      "perigee_km": 485.1257041119716,
      "latitude_deg": -6.008861322937546e-06,
      "longitude_deg": 151.28095287216757,
      "height_km": 485.1770222278664,
      "semi_major_axis_km": 6863.703422508731,
      "eccentricity": 6.421e-05,
      "inclination_deg": 43.0014,
      "raan_deg": 81.2086,
      "arg_perigee_deg": 292.0783,
      "mean_anomaly_deg": 68.0,
      "mean_motion_rev_day": 15.26739696
    },
    {
      "epoch": "2026-03-30T09:57:24.890688Z",
      "apogee_km": 485.9966469683641,
      "perigee_km": 485.1410173993245,
      "latitude_deg": 1.631071744347109e-05,
      "longitude_deg": 103.31016533151465,
      "height_km": 485.1614497160686,
      "semi_major_axis_km": 6863.705832183844,
      "eccentricity": 6.233e-05,
      "inclination_deg": 43.0017,
      "raan_deg": 80.4708,
      "arg_perigee_deg": 295.42,
      "mean_anomaly_deg": 64.6587,
      "mean_motion_rev_day": 15.26738892
    },
    {
      "epoch": "2026-03-30T16:14:15.004320Z",
      "apogee_km": 485.99274191373297,
      "perigee_km": 485.1537219749789,
      "latitude_deg": 3.0310306527242116e-05,
      "longitude_deg": 7.3672392151419785,
      "height_km": 485.20448768143956,
      "semi_major_axis_km": 6863.710231944356,
      "eccentricity": 6.112e-05,
      "inclination_deg": 43.0017,
      "raan_deg": 78.9946,
      "arg_perigee_deg": 290.2216,
      "mean_anomaly_deg": 69.857,
      "mean_motion_rev_day": 15.26737424
    },
    {
      "epoch": "2026-03-31T15:47:22.115040Z",
      "apogee_km": 486.05509128093126,
      "perigee_km": 485.0831904913821,
      "latitude_deg": -1.2175588634056545e-05,
      "longitude_deg": 7.585121954440881,
      "height_km": 485.34547259663043,
      "semi_major_axis_km": 6863.706140886156,
      "eccentricity": 7.08e-05,
      "inclination_deg": 43.0016,
      "raan_deg": 73.4594,
      "arg_perigee_deg": 270.0032,
      "mean_anomaly_deg": 90.0738,
      "mean_motion_rev_day": 15.26738789
    },
    {
      "epoch": "2026-04-01T15:20:29.776992Z",
      "apogee_km": 485.98868764940835,
      "perigee_km": 485.2130852682385,
      "latitude_deg": 2.685534190941351e-05,
      "longitude_deg": 7.801388504379425,
      "height_km": 485.36212102407217,
      "semi_major_axis_km": 6863.737886458824,
      "eccentricity": 5.65e-05,
      "inclination_deg": 43.0018,
      "raan_deg": 67.9248,
      "arg_perigee_deg": 272.2184,
      "mean_anomaly_deg": 87.8603,
      "mean_motion_rev_day": 15.26728197
    },
    {
      "epoch": "2026-04-02T21:10:26.341248Z",
      "apogee_km": 485.9936336224737,
      "perigee_km": 485.11425753852564,
      "latitude_deg": -4.944132832981949e-06,
      "longitude_deg": -87.92170101429882,
      "height_km": 485.30032001356227,
      "semi_major_axis_km": 6863.6909455805,
      "eccentricity": 6.406e-05,
      "inclination_deg": 43.0019,
      "raan_deg": 60.9126,
      "arg_perigee_deg": 273.9067,
      "mean_anomaly_deg": 86.1711,
      "mean_motion_rev_day": 15.26743859
    },
    {
      "epoch": "2026-04-03T14:26:43.257984Z",
      "apogee_km": 486.1916118686868,
      "perigee_km": 484.88888592684634,
      "latitude_deg": -3.375137438132406e-05,
      "longitude_deg": 8.239472115871775,
      "height_km": 485.2314255068868,
      "semi_major_axis_km": 6863.677248897767,
      "eccentricity": 9.49e-05,
      "inclination_deg": 43.0019,
      "raan_deg": 56.8536,
      "arg_perigee_deg": 277.5373,
      "mean_anomaly_deg": 82.537,
      "mean_motion_rev_day": 15.26748429
    },
    {
      "epoch": "2026-04-04T13:59:51.325152Z",
      "apogee_km": 485.91144499217444,
      "perigee_km": 485.2195837787249,
      "latitude_deg": 9.883131873670567e-07,
      "longitude_deg": 8.453539214033349,
      "height_km": 485.3012507952233,
      "semi_major_axis_km": 6863.70251438545,
      "eccentricity": 5.04e-05,
      "inclination_deg": 43.004,
      "raan_deg": 51.3185,
      "arg_perigee_deg": 276.7566,
      "mean_anomaly_deg": 83.3228,
      "mean_motion_rev_day": 15.26739999
    },
    {
      "epoch": "2026-04-05T13:32:58.292448Z",
      "apogee_km": 485.98199347466834,
      "perigee_km": 485.16617277532805,
      "latitude_deg": 4.562541207134041e-06,
      "longitude_deg": 8.672467602564154,
      "height_km": 485.2905237464041,
      "semi_major_axis_km": 6863.7110831249975,
      "eccentricity": 5.943e-05,
      "inclination_deg": 43.0018,
      "raan_deg": 45.7837,
      "arg_perigee_deg": 278.435,
      "mean_anomaly_deg": 81.6434,
      "mean_motion_rev_day": 15.2673714
    },
    {
      "epoch": "2026-04-05T21:24:01.138176Z",
      "apogee_km": 485.933142202789,
      "perigee_km": 485.23578810193067,
      "latitude_deg": 3.5158006743750636e-05,
      "longitude_deg": -111.2564780647785,
      "height_km": 485.31953537603823,
      "semi_major_axis_km": 6863.72146515236,
      "eccentricity": 5.08e-05,
      "inclination_deg": 43.0014,
      "raan_deg": 43.939,
      "arg_perigee_deg": 276.7655,
      "mean_anomaly_deg": 83.3139,
      "mean_motion_rev_day": 15.26733676
    },
    {
      "epoch": "2026-04-06T05:15:03.685824Z",
      "apogee_km": 485.94857537033386,
      "perigee_km": 485.21704011322345,
      "latitude_deg": -2.0346572629487737e-05,
      "longitude_deg": 128.81512970127224,
      "height_km": 485.3438811771071,
      "semi_major_axis_km": 6863.719807741778,
      "eccentricity": 5.329e-05,
      "inclination_deg": 43.002,
      "raan_deg": 42.0937,
      "arg_perigee_deg": 272.3769,
      "mean_anomaly_deg": 87.7021,
      "mean_motion_rev_day": 15.26734229
    },
    {
      "epoch": "2026-04-07T04:48:12.731904Z",
      "apogee_km": 485.9207919972914,
      "perigee_km": 485.3365482634499,
      "latitude_deg": 2.5430533306803733e-05,
      "longitude_deg": 129.02511666024975,
      "height_km": 485.46564433963067,
      "semi_major_axis_km": 6863.76567013037,
      "eccentricity": 4.256e-05,
      "inclination_deg": 43.0028,
      "raan_deg": 36.5586,
      "arg_perigee_deg": 257.9935,
      "mean_anomaly_deg": 102.0869,
      "mean_motion_rev_day": 15.26718927
    },
    {
      "epoch": "2026-04-07T20:30:16.793856Z",
      "apogee_km": 486.35984139147695,
      "perigee_km": 484.8237388882426,
      "latitude_deg": 6.15373164961935e-05,
      "longitude_deg": -110.82889398592316,
      "height_km": 485.7795727545857,
      "semi_major_axis_km": 6863.7287901398595,
      "eccentricity": 0.0001119,
      "inclination_deg": 43.004,
      "raan_deg": 32.8663,
      "arg_perigee_deg": 237.6473,
      "mean_anomaly_deg": 122.4271,
      "mean_motion_rev_day": 15.26731232
    },
    {
      "epoch": "2026-04-08T12:12:21.309408Z",
      "apogee_km": 485.8572418523963,
      "perigee_km": 485.26380656445326,
      "latitude_deg": 1.765804497638009e-05,
      "longitude_deg": 9.319614828154945,
      "height_km": 485.3547725948144,
      "semi_major_axis_km": 6863.6975242084245,
      "eccentricity": 4.323e-05,
      "inclination_deg": 43.0012,
      "raan_deg": 29.1785,
      "arg_perigee_deg": 93.6872,
      "mean_anomaly_deg": 266.4029,
      "mean_motion_rev_day": 15.26741664
    },
    {
      "epoch": "2026-04-09T11:45:27.672768Z",
      "apogee_km": 486.1001081549184,
      "perigee_km": 484.9508565088772,
      "latitude_deg": 4.308204937489139e-05,
      "longitude_deg": 9.540888270797709,
      "height_km": 485.6000332742711,
      "semi_major_axis_km": 6863.662482331898,
      "eccentricity": 8.372e-05,
      "inclination_deg": 43.0018,
      "raan_deg": 23.6435,
      "arg_perigee_deg": 238.7369,
      "mean_anomaly_deg": 121.3401,
      "mean_motion_rev_day": 15.26753356
    },
    {
      "epoch": "2026-04-10T03:27:32.455296Z",
      "apogee_km": 486.1081129872364,
      "perigee_km": 484.95158512316993,
      "latitude_deg": 4.7378888309850976e-05,
      "longitude_deg": 129.68543317485327,
      "height_km": 485.6291732475021,
      "semi_major_axis_km": 6863.666849055203,
      "eccentricity": 8.425e-05,
      "inclination_deg": 43.0034,
      "raan_deg": 19.9528,
      "arg_perigee_deg": 236.0638,
      "mean_anomaly_deg": 124.0134,
      "mean_motion_rev_day": 15.26751899
    }
  ]
}